{"fetched_at":"2026-07-07T18:29:17.377Z","source":"https://celestrak.org/NORAD/elements/gp.php?NAME=BRO&FORMAT=JSON","constellation":"unseenlabs","records":[{"OBJECT_NAME":"BRO-1","OBJECT_ID":"2019-054A","EPOCH":"2026-07-06T22:06:50.203296","CLASSIFICATION_TYPE":"U","MEAN_MOTION":16.04407051,"ECCENTRICITY":0.0008709,"INCLINATION":44.9854,"RA_OF_ASC_NODE":169.9464,"ARG_OF_PERICENTER":109.1044,"MEAN_ANOMALY":251.0812,"EPHEMERIS_TYPE":0,"NORAD_CAT_ID":44495,"ELEMENT_SET_NO":999,"REV_AT_EPOCH":38289,"BSTAR":0.00081768,"MEAN_MOTION_DOT":0.00563718,"MEAN_MOTION_DDOT":0.00015775},{"OBJECT_NAME":"BRO-5","OBJECT_ID":"2022-002CF","EPOCH":"2026-07-07T11:38:13.401312","CLASSIFICATION_TYPE":"U","MEAN_MOTION":15.48554863,"ECCENTRICITY":0.0004614,"INCLINATION":97.2982,"RA_OF_ASC_NODE":262.348,"ARG_OF_PERICENTER":233.1516,"MEAN_ANOMALY":126.9312,"EPHEMERIS_TYPE":0,"NORAD_CAT_ID":51061,"ELEMENT_SET_NO":999,"REV_AT_EPOCH":24939,"BSTAR":0.00040744,"MEAN_MOTION_DOT":0.00021652,"MEAN_MOTION_DDOT":0},{"OBJECT_NAME":"BRO-6","OBJECT_ID":"2022-047AE","EPOCH":"2026-07-07T12:31:20.148672","CLASSIFICATION_TYPE":"U","MEAN_MOTION":15.52106231,"ECCENTRICITY":0.0003259,"INCLINATION":97.3388,"RA_OF_ASC_NODE":279.9875,"ARG_OF_PERICENTER":352.3394,"MEAN_ANOMALY":7.7808,"EPHEMERIS_TYPE":0,"NORAD_CAT_ID":52422,"ELEMENT_SET_NO":999,"REV_AT_EPOCH":23430,"BSTAR":0.00049331,"MEAN_MOTION_DOT":0.00029765,"MEAN_MOTION_DDOT":0},{"OBJECT_NAME":"BRO-8","OBJECT_ID":"2023-001C","EPOCH":"2026-07-07T12:25:06.947328","CLASSIFICATION_TYPE":"U","MEAN_MOTION":15.50390569,"ECCENTRICITY":0.0005645,"INCLINATION":97.3189,"RA_OF_ASC_NODE":254.0108,"ARG_OF_PERICENTER":65.4338,"MEAN_ANOMALY":294.7501,"EPHEMERIS_TYPE":0,"NORAD_CAT_ID":55011,"ELEMENT_SET_NO":999,"REV_AT_EPOCH":19535,"BSTAR":0.00042022,"MEAN_MOTION_DOT":0.00023833,"MEAN_MOTION_DDOT":0},{"OBJECT_NAME":"BRO-11","OBJECT_ID":"2023-174J","EPOCH":"2026-07-07T11:45:38.227392","CLASSIFICATION_TYPE":"U","MEAN_MOTION":15.27546706,"ECCENTRICITY":0.0011686,"INCLINATION":97.3896,"RA_OF_ASC_NODE":265.1494,"ARG_OF_PERICENTER":131.2734,"MEAN_ANOMALY":228.9513,"EPHEMERIS_TYPE":0,"NORAD_CAT_ID":58264,"ELEMENT_SET_NO":999,"REV_AT_EPOCH":14785,"BSTAR":0.00012731,"MEAN_MOTION_DOT":0.00003361,"MEAN_MOTION_DDOT":0},{"OBJECT_NAME":"BRO-13","OBJECT_ID":"2024-043K","EPOCH":"2026-07-07T13:13:42.068640","CLASSIFICATION_TYPE":"U","MEAN_MOTION":14.96638563,"ECCENTRICITY":0.0007784,"INCLINATION":97.8516,"RA_OF_ASC_NODE":319.6373,"ARG_OF_PERICENTER":293.6828,"MEAN_ANOMALY":66.3576,"EPHEMERIS_TYPE":0,"NORAD_CAT_ID":59107,"ELEMENT_SET_NO":999,"REV_AT_EPOCH":12766,"BSTAR":0.000062459,"MEAN_MOTION_DOT":0.00000652,"MEAN_MOTION_DDOT":0},{"OBJECT_NAME":"BRO-12","OBJECT_ID":"2024-043L","EPOCH":"2026-07-07T13:03:19.321632","CLASSIFICATION_TYPE":"U","MEAN_MOTION":14.96884913,"ECCENTRICITY":0.0007057,"INCLINATION":97.8506,"RA_OF_ASC_NODE":319.7977,"ARG_OF_PERICENTER":288.9696,"MEAN_ANOMALY":71.076,"EPHEMERIS_TYPE":0,"NORAD_CAT_ID":59108,"ELEMENT_SET_NO":999,"REV_AT_EPOCH":12768,"BSTAR":0.00003702,"MEAN_MOTION_DOT":0.00000365,"MEAN_MOTION_DDOT":0},{"OBJECT_NAME":"BRO-14","OBJECT_ID":"2024-149CM","EPOCH":"2026-07-06T17:21:55.467360","CLASSIFICATION_TYPE":"U","MEAN_MOTION":14.96223834,"ECCENTRICITY":0.0007521,"INCLINATION":97.6867,"RA_OF_ASC_NODE":263.1504,"ARG_OF_PERICENTER":41.8338,"MEAN_ANOMALY":318.3456,"EPHEMERIS_TYPE":0,"NORAD_CAT_ID":60551,"ELEMENT_SET_NO":999,"REV_AT_EPOCH":10291,"BSTAR":0.000057624,"MEAN_MOTION_DOT":0.00000593,"MEAN_MOTION_DDOT":0},{"OBJECT_NAME":"BRO-15","OBJECT_ID":"2024-149CP","EPOCH":"2026-07-06T16:56:55.453632","CLASSIFICATION_TYPE":"U","MEAN_MOTION":14.96221512,"ECCENTRICITY":0.0008639,"INCLINATION":97.6803,"RA_OF_ASC_NODE":262.7154,"ARG_OF_PERICENTER":31.9922,"MEAN_ANOMALY":328.1822,"EPHEMERIS_TYPE":0,"NORAD_CAT_ID":60553,"ELEMENT_SET_NO":999,"REV_AT_EPOCH":10292,"BSTAR":0.00021496,"MEAN_MOTION_DOT":0.00002369,"MEAN_MOTION_DDOT":0},{"OBJECT_NAME":"BRO-16","OBJECT_ID":"2025-009AX","EPOCH":"2026-07-07T04:05:16.266624","CLASSIFICATION_TYPE":"U","MEAN_MOTION":15.24091418,"ECCENTRICITY":0.0001366,"INCLINATION":97.4049,"RA_OF_ASC_NODE":268.4098,"ARG_OF_PERICENTER":170.9045,"MEAN_ANOMALY":189.2218,"EPHEMERIS_TYPE":0,"NORAD_CAT_ID":62654,"ELEMENT_SET_NO":999,"REV_AT_EPOCH":8184,"BSTAR":0.00013258,"MEAN_MOTION_DOT":0.00003148,"MEAN_MOTION_DDOT":0},{"OBJECT_NAME":"BRO-18","OBJECT_ID":"2025-135Y","EPOCH":"2026-07-07T13:34:56.133408","CLASSIFICATION_TYPE":"U","MEAN_MOTION":15.22130669,"ECCENTRICITY":0.0002149,"INCLINATION":97.4644,"RA_OF_ASC_NODE":303.4404,"ARG_OF_PERICENTER":125.7258,"MEAN_ANOMALY":234.4178,"EPHEMERIS_TYPE":0,"NORAD_CAT_ID":64550,"ELEMENT_SET_NO":999,"REV_AT_EPOCH":5797,"BSTAR":0.0001327,"MEAN_MOTION_DOT":0.00002971,"MEAN_MOTION_DDOT":0},{"OBJECT_NAME":"BRO-17","OBJECT_ID":"2025-276G","EPOCH":"2026-07-07T03:42:59.135040","CLASSIFICATION_TYPE":"U","MEAN_MOTION":15.18123778,"ECCENTRICITY":0.0005127,"INCLINATION":97.418,"RA_OF_ASC_NODE":260.879,"ARG_OF_PERICENTER":296.6399,"MEAN_ANOMALY":63.4309,"EPHEMERIS_TYPE":0,"NORAD_CAT_ID":66672,"ELEMENT_SET_NO":999,"REV_AT_EPOCH":3342,"BSTAR":0.00011925,"MEAN_MOTION_DOT":0.00002366,"MEAN_MOTION_DDOT":0},{"OBJECT_NAME":"BRO-20","OBJECT_ID":"2025-276J","EPOCH":"2026-07-06T16:05:25.348128","CLASSIFICATION_TYPE":"U","MEAN_MOTION":15.1829283,"ECCENTRICITY":0.0004824,"INCLINATION":97.4158,"RA_OF_ASC_NODE":260.3926,"ARG_OF_PERICENTER":302.8363,"MEAN_ANOMALY":57.2406,"EPHEMERIS_TYPE":0,"NORAD_CAT_ID":66674,"ELEMENT_SET_NO":999,"REV_AT_EPOCH":3335,"BSTAR":0.00015103,"MEAN_MOTION_DOT":0.0000303,"MEAN_MOTION_DDOT":0},{"OBJECT_NAME":"BRO-19","OBJECT_ID":"2026-067G","EPOCH":"2026-07-07T08:10:13.985760","CLASSIFICATION_TYPE":"U","MEAN_MOTION":15.18953576,"ECCENTRICITY":0.0002223,"INCLINATION":97.4488,"RA_OF_ASC_NODE":146.51,"ARG_OF_PERICENTER":115.5402,"MEAN_ANOMALY":244.6062,"EPHEMERIS_TYPE":0,"NORAD_CAT_ID":68422,"ELEMENT_SET_NO":999,"REV_AT_EPOCH":1500,"BSTAR":0.00010342,"MEAN_MOTION_DOT":0.00002093,"MEAN_MOTION_DDOT":0},{"OBJECT_NAME":"BRO-21","OBJECT_ID":"2026-100AD","EPOCH":"2026-07-07T12:18:13.899168","CLASSIFICATION_TYPE":"U","MEAN_MOTION":15.21595257,"ECCENTRICITY":0.0007663,"INCLINATION":97.4019,"RA_OF_ASC_NODE":86.0741,"ARG_OF_PERICENTER":357.6935,"MEAN_ANOMALY":2.4264,"EPHEMERIS_TYPE":0,"NORAD_CAT_ID":69007,"ELEMENT_SET_NO":999,"REV_AT_EPOCH":989,"BSTAR":0.000086223,"MEAN_MOTION_DOT":0.00001877,"MEAN_MOTION_DDOT":0},{"OBJECT_NAME":"BRO-22","OBJECT_ID":"2026-132C","EPOCH":"2026-07-07T04:02:15.661248","CLASSIFICATION_TYPE":"U","MEAN_MOTION":14.99792054,"ECCENTRICITY":0.0015697,"INCLINATION":97.6834,"RA_OF_ASC_NODE":251.5926,"ARG_OF_PERICENTER":210.1194,"MEAN_ANOMALY":149.9128,"EPHEMERIS_TYPE":0,"NORAD_CAT_ID":69504,"ELEMENT_SET_NO":999,"REV_AT_EPOCH":377,"BSTAR":0.00008945,"MEAN_MOTION_DOT":0.00001049,"MEAN_MOTION_DDOT":0}]}
