BRO-1                   
1 44495U 19054A   26187.92141439  .00563718  15775-3  81768-3 0  9993
2 44495  44.9854 169.9464 0008709 109.1044 251.0812 16.04407051382891
BRO-5                   
1 51061U 22002CF  26188.48487733  .00021652  00000+0  40744-3 0  9995
2 51061  97.2982 262.3480 0004614 233.1516 126.9312 15.48554863249393
BRO-6                   
1 52422U 22047AE  26188.52176098  .00029765  00000+0  49331-3 0  9994
2 52422  97.3388 279.9875 0003259 352.3394   7.7808 15.52106231234308
BRO-8                   
1 55011U 23001C   26188.51744152  .00023833  00000+0  42022-3 0  9993
2 55011  97.3189 254.0108 0005645  65.4338 294.7501 15.50390569195354
BRO-11                  
1 58264U 23174J   26188.49002578  .00003361  00000+0  12731-3 0  9991
2 58264  97.3896 265.1494 0011686 131.2734 228.9513 15.27546706147851
BRO-13                  
1 59107U 24043K   26188.55118135  .00000652  00000+0  62459-4 0  9991
2 59107  97.8516 319.6373 0007784 293.6828  66.3576 14.96638563127662
BRO-12                  
1 59108U 24043L   26188.54397363  .00000365  00000+0  37020-4 0  9990
2 59108  97.8506 319.7977 0007057 288.9696  71.0760 14.96884913127688
BRO-14                  
1 60551U 24149CM  26187.72355865  .00000593  00000+0  57624-4 0  9996
2 60551  97.6867 263.1504 0007521  41.8338 318.3456 14.96223834102910
BRO-15                  
1 60553U 24149CP  26187.70619738  .00002369  00000+0  21496-3 0  9998
2 60553  97.6803 262.7154 0008639  31.9922 328.1822 14.96221512102926
BRO-16                  
1 62654U 25009AX  26188.17032716  .00003148  00000+0  13258-3 0  9998
2 62654  97.4049 268.4098 0001366 170.9045 189.2218 15.24091418 81844
BRO-18                  
1 64550U 25135Y   26188.56592747  .00002971  00000+0  13270-3 0  9990
2 64550  97.4644 303.4404 0002149 125.7258 234.4178 15.22130669 57972
BRO-17                  
1 66672U 25276G   26188.15485110  .00002366  00000+0  11925-3 0  9996
2 66672  97.4180 260.8790 0005127 296.6399  63.4309 15.18123778 33429
BRO-20                  
1 66674U 25276J   26187.67043227  .00003030  00000+0  15103-3 0  9994
2 66674  97.4158 260.3926 0004824 302.8363  57.2406 15.18292830 33353
BRO-19                  
1 68422U 26067G   26188.34043965  .00002093  00000+0  10342-3 0  9998
2 68422  97.4488 146.5100 0002223 115.5402 244.6062 15.18953576 15008
BRO-21                  
1 69007U 26100AD  26188.51266087  .00001877  00000+0  86223-4 0  9998
2 69007  97.4019  86.0741 0007663 357.6935   2.4264 15.21595257  9896
BRO-22                  
1 69504U 26132C   26188.16823682  .00001049  00000+0  89450-4 0  9992
2 69504  97.6834 251.5926 0015697 210.1194 149.9128 14.99792054  3770
